STARLINK-36135          
1 66986U 25288AD  26002.80394901  .00153586  00000+0  25691-2 0  9996
2 66986  43.0009  40.5088 0001248 270.1857  89.8861 15.50619097  5157
STARLINK-36147          
1 66987U 25288AE  26002.80360796  .00166111  00000+0  27737-2 0  9993
2 66987  43.0006  40.5064 0000532 283.1206  76.9595 15.50618408  5152
YAOGAN-47               
1 66988U 25289A   25362.17815560  .00004855  00000+0  20730-3 0  9990
2 66988  97.5253  67.3364 0000855 117.9958 242.1365 15.23366104  2890
CZ-4B R/B               
1 66989U 25289B   26002.74537732  .00180494  12042-4  76811-3 0  9997
2 66989  97.5218  74.6758 0132613 283.1900  75.4597 15.72961269  3860
TJS-22                  
1 66990U 25290A   26002.32610530  .00000003  00000+0  00000+0 0  9999
2 66990   1.9371 285.0544 0003327 344.4167  16.3643  1.00272813   361
CZ-3B R/B               
1 66991U 25290B   25349.72468800  .00057911 -20514-6  75879-3 0  9998
2 66991  28.4636 300.4666 7240884 182.7002 168.6250  2.38388611   165
2025-292A               
1 66993U 25292A   26002.82261562  .00009436  00000+0  67227-3 0  9993
2 66993  97.6505  80.1669 0015156 197.8140 162.2556 15.04716788  3563
2025-292B               
1 66994U 25292B   26002.82184962  .00010698  00000+0  76022-3 0  9997
2 66994  97.6517  80.1706 0014939 198.1842 161.8852 15.04781809  3560
2025-292C               
1 66995U 25292C   26002.82221707  .00011531  00000+0  82089-3 0  9994
2 66995  97.6507  80.1674 0015117 196.3412 163.7329 15.04693603  3560
2025-292D               
1 66996U 25292D   26002.82133174  .00008253  00000+0  58813-3 0  9990
2 66996  97.6503  80.1671 0014330 200.1430 159.9233 15.04759442  3569
2025-292E               
1 66997U 25292E   26002.81973374  .00009203  00000+0  65273-3 0  9998
2 66997  97.6525  80.1755 0014649 201.4998 158.5614 15.04901430  3556
2025-292F               
1 66998U 25292F   26002.81696292  .00011156  00000+0  78526-3 0  9995
2 66998  97.6548  80.1850 0015745 202.1105 157.9444 15.05118443  3564
